# From MPC106342
C/1995 O1 (Hale-Bopp),e,89.0075,283.3238,130.5627,179.4162,0.0004101,0.99494199,0.0000,03/29.7177/1997,2000,g -2.0,4.0
# From NK 1615
P/1996 R2 (Lagerkvist),e,2.6003,40.0342,333.3080,3.775032,0.1343764,0.31400819,83.3652,10/24.0/2020,2000,g 11.5,4.0
# From MPC 30063
P/1997 B1 (Kobayashi),e,12.3396,328.8854,183.3633,8.566881,0.0393070,0.76009467,339.5284,10/24.0/2020,2000,g 15.0,2.0
# From MPC 75703
P/1998 VS24 (LINEAR),e,5.0251,159.0309,244.6846,4.529774,0.1022326,0.24193723,103.2556,10/24.0/2020,2000,g 13.0,2.0
# From NK 731
P/1999 RO28 (LONEOS),e,7.5666,137.8832,231.2705,3.426786,0.1553723,0.67203385,75.4965,10/24.0/2020,2000,g 20.0,2.0
# From MPC 75704
P/1999 XN120 (Catalina),e,5.0297,285.2954,161.9084,4.178956,0.1153725,0.21037833,142.0467,10/24.0/2020,2000,g 13.5,2.0
# From NK 744
P/2000 R2 (LINEAR),e,11.6843,160.2952,176.5126,3.465993,0.1527434,0.53155594,75.5466,10/24.0/2020,2000,g 18.0,4.0
# From MPC 43019
P/2001 H5 (NEAT),e,8.3675,328.6854,224.8708,6.098185,0.0654490,0.59871569,119.8669,10/24.0/2020,2000,g 12.0,4.0
# From MPC 75704
P/2001 Q6 (NEAT),e,56.9015,22.1262,42.9479,7.950245,0.0439677,0.82279280,306.2214,10/24.0/2020,2000,g 13.5,4.0
# From MPC 47727
P/2002 EJ57 (LINEAR),e,4.9761,330.3299,167.3588,6.473348,0.0598426,0.59286371,51.3717,10/24.0/2020,2000,g 12.5,4.0
# From MPEC 2020-SI8
P/2002 T5 (LINEAR),e,30.8529,123.0883,326.7688,7.004950,0.0531614,0.43787113,337.8408,10/24.0/2020,2000,g  8.0,4.0
# From MPC109588
P/2002 T6 (NEAT-LINEAR),e,10.8331,206.4818,219.5775,7.669059,0.0464078,0.55997924,296.4763,10/24.0/2020,2000,g 10.5,4.0
# From MPC 50354
P/2003 F2 (NEAT),e,11.6048,359.0775,191.9032,6.488821,0.0596287,0.54216088,20.6769,10/24.0/2020,2000,g 16.5,2.0
# From MPC 50139
P/2003 QX29 (NEAT),e,11.3898,264.5905,37.3922,8.033260,0.0432879,0.47296150,284.4245,10/24.0/2020,2000,g  8.5,4.0
# From MPC105235
P/2003 T12 (SOHO),e,11.0167,174.5734,219.7704,2.586230,0.2369755,0.76963738,40.3190,10/24.0/2020,2000,g 17.0,4.0
# From MPC 82312
P/2004 A1 (LONEOS),e,10.5516,124.8475,21.4336,7.955244,0.0439262,0.30938267,259.7622,10/24.0/2020,2000,g  6.5,4.0
# From MPC 54558
P/2004 DO29 (Spacewatch-LINEAR),e,14.5316,147.3807,40.7293,7.282439,0.0501521,0.44135764,293.8163,10/24.0/2020,2000,g 13.5,2.0
# From MPC 54823
P/2004 FY140 (LINEAR),e,2.1348,326.7620,242.4656,4.901512,0.0908258,0.16865995,174.1853,10/24.0/2020,2000,g 12.5,2.0
# From MPC 53304
P/2004 R3 (LINEAR-NEAT),e,12.8254,305.4810,38.8265,4.792170,0.0939519,0.26124773,328.1304,10/24.0/2020,2000,g 14.5,4.0
# From MPC 55521
P/2004 V3 (Siding Spring),e,50.4317,356.1149,322.2944,7.144406,0.0516125,0.44631812,301.9920,10/24.0/2020,2000,g 11.5,4.0
# From MPC 75705
P/2004 V5 (LINEAR-Hill),e,19.3455,47.7680,87.7955,7.975400,0.0437598,0.44353455,251.0036,10/24.0/2020,2000,g  8.0,4.0
# From MPC 54164
P/2005 E1 (Tubbiolo),e,4.2637,335.5735,194.1311,7.037133,0.0527971,0.37519824,303.4536,10/24.0/2020,2000,g 10.0,4.0
# From MPC 54823
P/2005 GF8 (LONEOS),e,1.1937,314.8351,285.1553,5.865200,0.0693873,0.51822965,27.0823,10/24.0/2020,2000,g 11.5,4.0
# From MPC 79019
P/2005 J1 (McNaught),e,31.7670,268.8026,338.9562,3.569716,0.1461348,0.56990680,108.4720,10/24.0/2020,2000,g 16.5,4.0
# From MPC 74246
P/2005 L1 (McNaught),e,7.7386,138.2478,149.6935,3.975241,0.1243538,0.20934909,313.4165,10/24.0/2020,2000,g  9.5,4.0
# From MPC 75706
P/2005 S2 (Skiff),e,3.1357,161.1954,229.1619,8.017562,0.0434151,0.19682582,229.3869,10/24.0/2020,2000,g  7.5,4.0
# From MPC 75706
P/2005 SB216 (LONEOS),e,24.0707,1.2452,83.3956,7.126734,0.0518046,0.46326720,260.8298,10/24.0/2020,2000,g 12.0,2.0
# From MPC 55717
P/2005 T2 (Christensen),e,8.2927,260.1574,58.8089,3.845971,0.1306758,0.41641785,25.9571,10/24.0/2020,2000,g 14.5,4.0
# From MPC 73461
P/2005 T3 (Read),e,6.2249,27.7474,7.0601,7.576650,0.0472594,0.17389185,259.3275,10/24.0/2020,2000,g  9.0,4.0
# From MPC 73461
P/2005 T4 (SWAN),e,160.1774,25.6594,41.5638,9.360818,0.0344139,0.92994389,189.4367,10/24.0/2020,2000,g 15.0,4.0
# From MPC 75706
P/2005 T5 (Broughton),e,21.3516,57.0081,304.5199,7.291817,0.0500553,0.55194795,275.1678,10/24.0/2020,2000,g 11.0,4.0
# From MPC 56954
P/2005 W3 (Kowalski),e,16.4167,210.0941,200.6669,6.333037,0.0618424,0.54354761,339.4875,10/24.0/2020,2000,g 12.0,4.0
# From MPC 75706
P/2005 XA54 (LONEOS-Hill),e,17.1187,143.6711,15.1386,6.052270,0.0661952,0.71018001,353.5602,10/24.0/2020,2000,g 14.0,4.0
# From MPC 75706
P/2005 Y2 (McNaught),e,19.0984,94.5145,194.0584,6.381023,0.0611461,0.47016798,0.1894,10/24.0/2020,2000,g  9.0,4.0
# From MPC 56954
P/2006 F4 (Spacewatch),e,12.3986,183.8914,31.1858,3.527639,0.1487571,0.33928366,66.6862,10/24.0/2020,2000,g 15.0,4.0
# From MPC 75707
P/2006 HR30 (Siding Spring),e,31.8303,309.9013,117.2920,7.811242,0.0451465,0.84198245,228.5684,10/24.0/2020,2000,g 11.0,4.0
# From MPC 75707
P/2006 S4 (Christensen),e,39.5368,36.0968,305.1524,6.310359,0.0621760,0.50791629,332.1610,10/24.0/2020,2000,g 11.0,4.0
# From MPC 75707
P/2007 A2 (Christensen),e,26.4877,300.9066,186.7637,6.324174,0.0619724,0.55753750,312.5019,10/24.0/2020,2000,g 13.5,4.0
# From MPC 59319
P/2007 B1 (Christensen),e,12.3764,77.6669,46.7539,5.819401,0.0702080,0.58091353,353.4253,10/24.0/2020,2000,g 13.5,4.0
# From MPC 75707
P/2007 C2 (Catalina),e,8.6628,275.6461,179.8657,6.995034,0.0532745,0.46983223,254.4423,10/24.0/2020,2000,g 10.0,4.0
# From MPC 82314
P/2007 K2 (Gibbs),e,7.6372,188.6474,347.4741,7.262201,0.0503619,0.68340104,246.2117,10/24.0/2020,2000,g 14.0,4.0
# From MPC 60925
P/2007 Q2 (Gilmore),e,10.2019,172.1612,162.7783,5.656703,0.0732587,0.67036365,357.5107,10/24.0/2020,2000,g 16.0,4.0
# From MPC 75708
P/2007 R2 (Gibbs),e,1.2165,11.4294,352.3836,3.572740,0.1459493,0.54221509,5.5155,10/24.0/2020,2000,g 17.0,4.0
# From MPC 75708
P/2007 R4 (Garradd),e,20.2279,87.2222,282.6777,5.924668,0.0683452,0.66994517,331.9177,10/24.0/2020,2000,g 14.5,4.0
# From MPC 73462
P/2007 S1 (Zhao),e,5.9630,141.3824,245.7643,3.812240,0.1324139,0.33965863,265.3682,10/24.0/2020,2000,g 13.0,4.0
# From MPC 61994
P/2007 T2 (Kowalski),e,9.7442,3.3755,359.6354,3.047245,0.1852862,0.78519687,152.5473,10/24.0/2020,2000,g 18.5,4.0
# From MPEC 2020-UG9
P/2007 VQ11 (Catalina),e,12.3200,163.8165,277.6740,5.425788,0.0779848,0.50324849,2.9337,10/24.0/2020,2000,g 12.0,4.0
# From MPC 75708
P/2008 CL94 (Lemmon),e,8.3475,33.3336,80.5482,6.160497,0.0644585,0.12022485,338.5237,10/24.0/2020,2000,g  8.0,4.0
# From MPC 75709
P/2008 L2 (Hill),e,25.8556,218.0049,141.2091,6.028643,0.0665847,0.61298433,298.1233,10/24.0/2020,2000,g 12.5,4.0
# From MPC 64114
P/2008 O3 (Boattini),e,32.2452,47.6005,341.0848,8.223587,0.0417938,0.69498542,189.6434,10/24.0/2020,2000,g 13.0,4.0
# From MPC 75709
P/2008 QP20 (LINEAR-Hill),e,7.5208,322.0840,75.6568,3.551415,0.1472658,0.49241740,295.9226,10/24.0/2020,2000,g 15.5,4.0
# From MPC 66204
P/2008 WZ96 (LINEAR),e,7.1133,56.5077,341.8383,3.491323,0.1510842,0.47057038,313.6754,10/24.0/2020,2000,g 13.5,4.0
# From MPC 75710
P/2008 Y3 (McNaught),e,38.7623,262.7888,238.2797,8.045727,0.0431873,0.44555620,186.5420,10/24.0/2020,2000,g  8.5,4.0
# From MPC 75710
P/2009 B1 (Boattini),e,22.2192,297.0915,128.9010,6.735558,0.0563824,0.63461584,242.8031,10/24.0/2020,2000,g 13.0,4.0
# From MPC 75710
P/2009 O3 (Hill),e,16.2623,183.7190,154.3824,7.770896,0.0454985,0.68748433,189.9694,10/24.0/2020,2000,g 12.5,4.0
# From MPC 98557
P/2009 Q1 (Hill),e,14.5054,173.9587,157.1244,5.519925,0.0759984,0.49473314,316.1352,10/24.0/2020,2000,g 11.5,4.0
# From MPEC 2020-SI8
P/2009 Q4 (Boattini),e,11.0152,127.4651,320.2326,3.127897,0.1781662,0.58256610,348.6428,10/24.0/2020,2000,g 15.5,4.0
# From MPC 68902
P/2009 Q5 (McNaught),e,40.9716,160.2606,209.0187,7.438466,0.0485824,0.60859436,197.7245,10/24.0/2020,2000,g 10.0,4.0
# From MPC112389
P/2009 T2 (La Sagra),e,27.5429,215.7857,216.4281,7.724570,0.0459084,0.76503142,181.4983,10/24.0/2020,2000,g 14.0,4.0
# From MPC 75711
P/2009 U4 (McNaught),e,10.0812,55.3593,259.8449,5.082572,0.0860159,0.67604944,351.3881,10/24.0/2020,2000,g 14.0,4.0
# From MPC105235
P/2009 WX51 (Catalina),e,9.5952,31.6871,118.0632,3.079562,0.1823772,0.74022301,355.7396,10/24.0/2020,2000,g 19.0,2.0
# From MPC 74247
P/2009 Y2 (Kowalski),e,29.9292,262.0240,172.1765,6.548826,0.0588110,0.63584535,228.6429,10/24.0/2020,2000,g 13.0,4.0
# From MPC 75711
P/2010 A3 (Hill),e,14.8693,64.1169,41.9143,6.075299,0.0658192,0.73321671,254.5617,10/24.0/2020,2000,g 14.0,4.0
# From MPC 72851
P/2010 A5 (LINEAR),e,5.7979,277.6640,307.0879,5.083647,0.0859886,0.66504442,329.1748,10/24.0/2020,2000,g 13.0,4.0
# From MPC105235
P/2010 B2 (WISE),e,8.9306,0.8483,155.9191,3.110009,0.1797056,0.47990370,352.5300,10/24.0/2020,2000,g 17.0,4.0
# From MPC 75008
P/2010 C1 (Scotti),e,9.1281,141.8862,3.7953,7.102694,0.0520678,0.25859900,207.9594,10/24.0/2020,2000,g  9.5,4.0
# From MPC 75008
P/2010 D2 (WISE),e,57.0846,319.8920,120.1043,6.715437,0.0566360,0.45083661,220.9918,10/24.0/2020,2000,g 16.0,4.0
# From MPC 75009
P/2010 E2 (Jarnac),e,15.4075,177.8251,8.3716,8.637721,0.0388245,0.72031051,149.7062,10/24.0/2020,2000,g 14.0,4.0
# From MPC 72851
P/2010 H2 (Vales),e,14.2728,64.2086,128.2133,3.834644,0.1312552,0.19562419,149.7330,10/24.0/2020,2000,g  6.0,4.0
# From MPC 70361
P/2010 H3 (SOHO),e,23.0956,77.1193,26.1211,3.060349,0.1840974,0.98549111,0.0000,02/07.9617/2021,2000,g 20.0,2.0
# From MPC 73463
P/2010 H4 (Scotti),e,2.3191,44.7487,179.5632,6.589263,0.0582705,0.26763677,220.1652,10/24.0/2020,2000,g 10.5,4.0
# From MPC 74637
P/2010 H5 (Scotti),e,14.0679,24.8095,175.2957,7.158137,0.0514641,0.15374931,198.1064,10/24.0/2020,2000,g 13.0,2.0
# From MPC 98558
P/2010 J3 (McMillan),e,13.2897,106.4082,157.5822,8.969739,0.0366889,0.72730993,136.0397,10/24.0/2020,2000,g 11.0,4.0
# From MPC 84315
P/2010 JC81 (WISE),e,38.7131,30.8413,12.4452,8.111461,0.0426634,0.77663916,148.2968,10/24.0/2020,2000,g  9.0,4.0
# From MPC 74248
P/2010 T2 (PANSTARRS),e,7.9194,59.0796,353.7540,5.511141,0.0761801,0.32155054,264.8153,10/24.0/2020,2000,g 11.5,4.0
# From MPC 98558
